ALOS-2                  
1 39766U 14029A   26199.58845028  .00000929  00000+0  13125-3 0  9998
2 39766  97.9232 296.3037 0001616  91.6846 268.4551 14.79473285656225
KAZEOSAT 2              
1 40010U 14033A   26199.55223421 -.00000208  00000+0 -18277-4 0  9997
2 40010  97.5389  37.5047 0007666 207.1069 152.9747 14.85500542653614
HODOYOSHI-4             
1 40011U 14033B   26199.63622153 -.00000115  00000+0 -67227-5 0  9999
2 40011  97.5458  22.9425 0022920 197.9094 162.1318 14.88191093653486
DEIMOS-2                
1 40013U 14033D   26199.59981478  .00001023  00000+0  10156-3 0  9998
2 40013  97.5780  72.9790 0001315 108.5213 251.6150 14.93801288642411
HODOYOSHI-3             
1 40015U 14033F   26199.44122560  .00000496  00000+0  63176-4 0  9997
2 40015  97.6449   1.2301 0031372 250.7333 109.0489 14.85440968652268
SPOT 7                  
1 40053U 14034A   26199.61775895  .00000472  00000+0  10556-3 0  9991
2 40053  98.0609 261.2973 0001627  94.9558 265.1829 14.60983705641728
SKYSAT-B                
1 40072U 14037D   26199.32546685  .00000564  00000+0  68006-4 0  9992
2 40072  98.3856 160.0704 0005822 163.2201 196.9208 14.88095911650590
WORLDVIEW-3 (WV-3)      
1 40115U 14048A   26199.63345879  .00000323  00000+0  44020-4 0  9991
2 40115  97.8554 274.0308 0001561 150.7560 209.3742 14.85066974646577
GAOFEN-2                
1 40118U 14049A   26199.66253345  .00000387  00000+0  56995-4 0  9998
2 40118  98.0090 263.8374 0008442 124.9871 235.2135 14.80929764643896
YAOGAN-21               
1 40143U 14053A   26199.62536396  .00005656  00000+0  21730-3 0  9999
2 40143  97.1453 238.5176 0007322 356.0610   4.0570 15.26790206659756
YAOGAN-22               
1 40275U 14063A   26199.36661226 -.00000023  00000+0  62613-4 0  9998
2 40275 100.7766 351.1630 0006896 118.5201 241.6605 13.15531673563916
ASNARO                  
1 40298U 14070A   26199.63461997  .00004151  00000+0  19918-3 0  9998
2 40298  97.3436 274.9033 0004733  79.2930 280.8838 15.19407323648787
YAOGAN-24               
1 40310U 14072A   26199.60221620  .00000188  00000+0  34920-4 0  9996
2 40310  98.1534 337.2084 0014858 158.8656 201.3170 14.76119857628359
CBERS 4                 
1 40336U 14079A   26199.61210199  .00000353  00000+0  13727-3 0  9996
2 40336  98.3510 255.4551 0000665  58.3490 301.7760 14.35517852608466
YAOGAN-26               
1 40362U 14088A   26199.61472843  .00011298  00000+0  21386-3 0  9991
2 40362  97.0652 199.1155 0001381 318.2970  41.8176 15.48530052642563
SMAP                    
1 40376U 15003A   26199.53272981  .00000156  00000+0  39282-4 0  9992
2 40376  98.1285 206.1846 0001622  94.0265 266.1123 14.63390639612205
KOMPSAT-3A              
1 40536U 15014A   26199.58493479  .00020356  00000+0  27855-3 0  9990
2 40536  97.6900 193.2819 0055842  63.6825 297.0149 15.55564624626692
SENTINEL-2A             
1 40697U 15028A   26199.61330497  .00000387  00000+0  16416-3 0  9990
2 40697  98.5675 274.0174 0001317  94.8286 265.3047 14.30816198578224
GAOFEN-8                
1 40701U 15030A   26199.66301030  .00011799  00000+0  23497-3 0  9991
2 40701  97.6896  34.9467 0009871  85.2058 275.0318 15.47026233616311
CARBONITE 1 (CBNT-1)    
1 40718U 15032D   26199.67866740  .00000568  00000+0  74839-4 0  9995
2 40718  97.6523  16.4299 0014160 185.1335 174.9737 14.83673590594016
YAOGAN-27               
1 40878U 15040A   26199.65320539 -.00000463  00000+0 -11063-2 0  9994
2 40878 100.1173 184.6732 0008630 137.5577 222.6205 13.16069787521808
GAOFEN-9 01             
1 40894U 15047A   26199.64148692  .00000399  00000+0  55050-4 0  9998
2 40894  97.6263 233.9056 0028224  39.6352 320.6918 14.82938561584850
YAOGAN-28               
1 41026U 15064A   26199.63352459  .00003469  00000+0  13030-3 0  9994
2 41026  97.3117 337.2692 0012004  82.4991 277.7612 15.27784836595489
YAOGAN-29               
1 41038U 15069A   26199.61767545 -.00000132  00000+0 -95875-5 0  9991
2 41038  98.0013 228.2986 0000462   1.7312 358.3903 14.83106731575284
KENT RIDGE 1            
1 41167U 15077B   26199.20187301  .00002290  00000+0  62591-4 0  9997
2 41167  14.9806  35.2992 0008276 317.2142  42.7536 15.23293107585831
GAOFEN-4                
1 41194U 15083A   26199.62046279 -.00000342  00000+0  00000+0 0  9997
2 41194   0.4369  83.7998 0004247 125.1985  56.4858  1.00271056 38846
JASON-3                 
1 41240U 16002A   26199.61440487 -.00000038  00000+0  94702-4 0  9998
2 41240  66.0416  59.7635 0008149 270.6236  89.3849 12.87628832491292
SENTINEL-3A             
1 41335U 16011A   26199.63473251  .00000041  00000+0  35110-4 0  9991
2 41335  98.6235 266.5643 0001323  89.3195 270.8137 14.26740388542548
ZIYUAN 3-02 (ZY 3-02)   
1 41556U 16033A   26199.62961485  .00002549  00000+0  11625-3 0  9999
2 41556  97.3822 274.7997 0014447 173.0150 187.1290 15.21453119562762
CARTOSAT-2C             
1 41599U 16040A   26199.60950971  .00002547  00000+0  12388-3 0  9995
2 41599  97.4462 259.1523 0009357  34.7633 325.4211 15.19280531558482
