OBJECT_NAME,OBJECT_ID,EPOCH,MEAN_MOTION,ECCENTRICITY,INCLINATION,RA_OF_ASC_NODE,ARG_OF_PERICENTER,MEAN_ANOMALY,EPHEMERIS_TYPE,CLASSIFICATION_TYPE,NORAD_CAT_ID,ELEMENT_SET_NO,REV_AT_EPOCH,BSTAR,MEAN_MOTION_DOT,MEAN_MOTION_DDOT
ALOS-2,2014-029A,2026-07-18T14:07:22.104192,14.79473285,.0001616,97.9232,296.3037,91.6846,268.4551,0,U,39766,999,65622,.13124854E-3,.929E-5,0
KAZEOSAT 2,2014-033A,2026-07-18T13:15:13.035744,14.85500542,.00076668,97.5389,37.5047,207.1069,152.9747,0,U,40010,999,65361,-.1827732E-4,-.208E-5,0
HODOYOSHI-4,2014-033B,2026-07-18T15:16:09.540192,14.88191093,.00229206,97.5458,22.9425,197.9094,162.1318,0,U,40011,999,65348,-.6722741E-5,-.115E-5,0
DEIMOS-2,2014-033D,2026-07-18T14:23:43.996992,14.93801288,.00013158,97.5780,72.9790,108.5213,251.6150,0,U,40013,999,64241,.10155621E-3,.1023E-4,0
HODOYOSHI-3,2014-033F,2026-07-18T10:35:21.891840,14.85440968,.00313724,97.6449,1.2301,250.7333,109.0489,0,U,40015,999,65226,.63176399E-4,.496E-5,0
SPOT 7,2014-034A,2026-07-18T14:49:34.373280,14.60983705,.00016278,98.0609,261.2973,94.9558,265.1829,0,U,40053,999,64172,.10556232E-3,.472E-5,0
SKYSAT-B,2014-037D,2026-07-18T07:48:40.335840,14.88095911,.00058226,98.3856,160.0704,163.2201,196.9208,0,U,40072,999,65059,.68006365E-4,.564E-5,0
WORLDVIEW-3 (WV-3),2014-048A,2026-07-18T15:12:10.839456,14.85066974,.00015617,97.8554,274.0308,150.7560,209.3742,0,U,40115,999,64657,.44019518E-4,.323E-5,0
GAOFEN-2,2014-049A,2026-07-18T15:54:02.890080,14.80929764,.00084425,98.0090,263.8374,124.9871,235.2135,0,U,40118,999,64389,.56995325E-4,.387E-5,0
YAOGAN-21,2014-053A,2026-07-18T15:00:31.446144,15.26790206,.0007322,97.1453,238.5176,356.0610,4.0570,0,U,40143,999,65975,.21729858E-3,.5656E-4,0
YAOGAN-22,2014-063A,2026-07-18T08:47:55.299264,13.15531673,.00068969,100.7766,351.1630,118.5201,241.6605,0,U,40275,999,56391,.62612519E-4,-.23E-6,0
ASNARO,2014-070A,2026-07-18T15:13:51.165408,15.19407323,.0004733,97.3436,274.9033,79.2930,280.8838,0,U,40298,999,64878,.19917533E-3,.4151E-4,0
YAOGAN-24,2014-072A,2026-07-18T14:27:11.479680,14.76119857,.00148584,98.1534,337.2084,158.8656,201.3170,0,U,40310,999,62835,.34920288E-4,.188E-5,0
CBERS 4,2014-079A,2026-07-18T14:41:25.611936,14.35517852,.0000665,98.3510,255.4551,58.3490,301.7760,0,U,40336,999,60846,.137271E-3,.353E-5,0
YAOGAN-26,2014-088A,2026-07-18T14:45:12.536352,15.48530052,.00013815,97.0652,199.1155,318.2970,41.8176,0,U,40362,999,64256,.21386198E-3,.11298E-3,0
SMAP,2015-003A,2026-07-18T12:47:07.855584,14.63390639,.00016225,98.1285,206.1846,94.0265,266.1123,0,U,40376,999,61220,.39281526E-4,.156E-5,0
KOMPSAT-3A,2015-014A,2026-07-18T14:02:18.365856,15.55564624,.0055842,97.6900,193.2819,63.6825,297.0149,0,U,40536,999,62669,.27854724E-3,.20356E-3,0
SENTINEL-2A,2015-028A,2026-07-18T14:43:09.549408,14.30816198,.00013171,98.5675,274.0174,94.8286,265.3047,0,U,40697,999,57822,.16415743E-3,.387E-5,0
GAOFEN-8,2015-030A,2026-07-18T15:54:44.089920,15.47026233,.00098717,97.6896,34.9467,85.2058,275.0318,0,U,40701,999,61631,.23497435E-3,.11799E-3,0
CARBONITE 1 (CBNT-1),2015-032D,2026-07-18T16:17:16.863360,14.83673590,.00141606,97.6523,16.4299,185.1335,174.9737,0,U,40718,999,59401,.74839214E-4,.568E-5,0
YAOGAN-27,2015-040A,2026-07-18T15:40:36.945696,13.16069787,.00086302,100.1173,184.6732,137.5577,222.6205,0,U,40878,999,52180,-.11063379E-2,-.463E-5,0
GAOFEN-9 01,2015-047A,2026-07-18T15:23:44.469888,14.82938561,.00282242,97.6263,233.9056,39.6352,320.6918,0,U,40894,999,58485,.55049791E-4,.399E-5,0
YAOGAN-28,2015-064A,2026-07-18T15:12:16.524576,15.27784836,.00120044,97.3117,337.2692,82.4991,277.7612,0,U,41026,999,59548,.13030398E-3,.3469E-4,0
YAOGAN-29,2015-069A,2026-07-18T14:49:27.158880,14.83106731,.00004626,98.0013,228.2986,1.7312,358.3903,0,U,41038,999,57528,-.9587535E-5,-.132E-5,0
KENT RIDGE 1,2015-077B,2026-07-18T04:50:41.828064,15.23293107,.00082766,14.9806,35.2992,317.2142,42.7536,0,U,41167,999,58583,.62590516E-4,.229E-4,0
GAOFEN-4,2015-083A,2026-07-18T14:53:27.985056,1.00271056,.00042477,0.4369,83.7998,125.1985,56.4858,0,U,41194,999,3884,0,-.342E-5,0
JASON-3,2016-002A,2026-07-18T14:44:44.580768,12.87628832,.00081498,66.0416,59.7635,270.6236,89.3849,0,U,41240,999,49129,.94701654E-4,-.38E-6,0
SENTINEL-3A,2016-011A,2026-07-18T15:14:00.888864,14.26740388,.00013232,98.6235,266.5643,89.3195,270.8137,0,U,41335,999,54254,.35109859E-4,.41E-6,0
ZIYUAN 3-02 (ZY 3-02),2016-033A,2026-07-18T15:06:38.723040,15.21453119,.00144474,97.3822,274.7997,173.0150,187.1290,0,U,41556,999,56276,.11624791E-3,.2549E-4,0
CARTOSAT-2C,2016-040A,2026-07-18T14:37:41.638944,15.19280531,.00093574,97.4462,259.1523,34.7633,325.4211,0,U,41599,999,55848,.1238769E-3,.2547E-4,0
